[{"OBJECT_NAME":"STARLINK-3861","OBJECT_ID":"2022-049BE","EPOCH":"2026-03-09T07:26:12.999552","MEAN_MOTION":15.08837336,"ECCENTRICITY":0.00013843,"INCLINATION":53.2187,"RA_OF_ASC_NODE":40.711,"ARG_OF_PERICENTER":89.9727,"MEAN_ANOMALY":270.1424,"EPHEMERIS_TYPE":0,"CLASSIFICATION_TYPE":"U","NORAD_CAT_ID":52503,"ELEMENT_SET_NO":999,"REV_AT_EPOCH":21247,"BSTAR":-2.850001e-5,"MEAN_MOTION_DOT":-7.41e-6,"MEAN_MOTION_DDOT":0},{"OBJECT_NAME":"SL-3 DEB","OBJECT_ID":"1983-075D","EPOCH":"2026-03-09T23:36:44.953632","MEAN_MOTION":15.09588045,"ECCENTRICITY":0.00266029,"INCLINATION":97.8881,"RA_OF_ASC_NODE":62.5591,"ARG_OF_PERICENTER":309.2805,"MEAN_ANOMALY":113.3567,"EPHEMERIS_TYPE":0,"CLASSIFICATION_TYPE":"U","NORAD_CAT_ID":14229,"ELEMENT_SET_NO":999,"REV_AT_EPOCH":31646,"BSTAR":0.00023866318,"MEAN_MOTION_DOT":3.795e-5,"MEAN_MOTION_DDOT":0}]
